{
  "norad_id": 63575,
  "name": "STARLINK-33732",
  "history": [
    {
      "epoch": "2026-03-28T17:59:21.382656Z",
      "apogee_km": 483.92451982188413,
      "perigee_km": 481.97926389926306,
      "latitude_deg": -2.7721606220076305e-06,
      "longitude_deg": 118.20557358760483,
      "height_km": 482.93831533744714,
      "semi_major_axis_km": 6861.088891860573,
      "eccentricity": 0.00014176,
      "inclination_deg": 43.0012,
      "raan_deg": 214.2102,
      "arg_perigee_deg": 257.5532,
      "mean_anomaly_deg": 102.5161,
      "mean_motion_rev_day": 15.27612463
    }
  ]
}